{
  "type": "FeatureCollection",
  "features": [
    {
      "type": "Feature",
      "properties": {
        "norad_id": 34761,
        "name": "COSMOS 2251 DEB",
        "group": "cosmos-2251-debris",
        "lat": -73.16149804878076,
        "lon": -66.86959764650294,
        "alt_km": 786.0815268593424,
        "timestamp": "2025-12-11T22:43:47.665798+00:00",
        "meta_object_name": "COSMOS 2251 DEB",
        "meta_object_id": "1993-036AAF",
        "meta_epoch": "2025-12-11T11:26:06.766080",
        "meta_mean_motion": 14.38042685,
        "meta_eccentricity": 0.00363561,
        "meta_inclination": 74.0296,
        "meta_ra_of_asc_node": 5.1194,
        "meta_arg_of_pericenter": 39.5849,
        "meta_mean_anomaly": 320.7949,
        "meta_ephemeris_type": 0,
        "meta_classification_type": "U",
        "meta_norad_cat_id": 34761,
        "meta_element_set_no": 999,
        "meta_rev_at_epoch": 87631,
        "meta_bstar": 0.00096427409,
        "meta_mean_motion_dot": 2.916e-05,
        "meta_mean_motion_ddot": 0,
        "tle_line1": "1 34761U 93036AAF 25345.47646720  .00002916  00000+0  96427-3 0  9995",
        "tle_line2": "2 34761  74.0296   5.1194 0036356  39.5849 320.7949 14.38042685876312"
      },
      "geometry": {
        "type": "Point",
        "coordinates": [
          -66.86959764650294,
          -73.16149804878076
        ]
      }
    },
    {
      "type": "Feature",
      "properties": {
        "norad_id": 34784,
        "name": "COSMOS 2251 DEB",
        "group": "cosmos-2251-debris",
        "lat": 71.91773455904156,
        "lon": 27.319395553724387,
        "alt_km": 662.7314691847641,
        "timestamp": "2025-12-11T22:43:47.665808+00:00",
        "meta_object_name": "COSMOS 2251 DEB",
        "meta_object_id": "1993-036AAM",
        "meta_epoch": "2025-12-10T16:46:20.786880",
        "meta_mean_motion": 14.60764194,
        "meta_eccentricity": 0.00494737,
        "meta_inclination": 74.0076,
        "meta_ra_of_asc_node": 328.2622,
        "meta_arg_of_pericenter": 138.1913,
        "meta_mean_anomaly": 222.305,
        "meta_ephemeris_type": 0,
        "meta_classification_type": "U",
        "meta_norad_cat_id": 34784,
        "meta_element_set_no": 999,
        "meta_rev_at_epoch": 88505,
        "meta_bstar": 0.00075480523,
        "meta_mean_motion_dot": 3.719e-05,
        "meta_mean_motion_ddot": 0,
        "tle_line1": "1 34784U 93036AAM 25344.69885170  .00003719  00000+0  75481-3 0  9996",
        "tle_line2": "2 34784  74.0076 328.2622 0049473 138.1913 222.3050 14.60764194885052"
      },
      "geometry": {
        "type": "Point",
        "coordinates": [
          27.319395553724387,
          71.91773455904156
        ]
      }
    },
    {
      "type": "Feature",
      "properties": {
        "norad_id": 34790,
        "name": "COSMOS 2251 DEB",
        "group": "cosmos-2251-debris",
        "lat": -46.33382118183807,
        "lon": -132.2982364394225,
        "alt_km": 743.9134565231816,
        "timestamp": "2025-12-11T22:43:47.665818+00:00",
        "meta_object_name": "COSMOS 2251 DEB",
        "meta_object_id": "1993-036AAT",
        "meta_epoch": "2025-12-11T05:11:30.453216",
        "meta_mean_motion": 14.24623165,
        "meta_eccentricity": 0.01007965,
        "meta_inclination": 74.0532,
        "meta_ra_of_asc_node": 246.4479,
        "meta_arg_of_pericenter": 308.3141,
        "meta_mean_anomaly": 216.5903,
        "meta_ephemeris_type": 0,
        "meta_classification_type": "U",
        "meta_norad_cat_id": 34790,
        "meta_element_set_no": 999,
        "meta_rev_at_epoch": 86551,
        "meta_bstar": 0.0011081532,
        "meta_mean_motion_dot": 2.689e-05,
        "meta_mean_motion_ddot": 0,
        "tle_line1": "1 34790U 93036AAT 25345.21632469  .00002689  00000+0  11082-2 0  9994",
        "tle_line2": "2 34790  74.0532 246.4479 0100796 308.3141 216.5903 14.24623165865510"
      },
      "geometry": {
        "type": "Point",
        "coordinates": [
          -132.2982364394225,
          -46.33382118183807
        ]
      }
    },
    {
      "type": "Feature",
      "properties": {
        "norad_id": 34792,
        "name": "COSMOS 2251 DEB",
        "group": "cosmos-2251-debris",
        "lat": 9.492929087536945,
        "lon": -11.53298195810337,
        "alt_km": 708.3768726729486,
        "timestamp": "2025-12-11T22:43:47.665829+00:00",
        "meta_object_name": "COSMOS 2251 DEB",
        "meta_object_id": "1993-036AAV",
        "meta_epoch": "2025-12-11T12:11:46.359744",
        "meta_mean_motion": 14.55938189,
        "meta_eccentricity": 0.00124809,
        "meta_inclination": 74.018,
        "meta_ra_of_asc_node": 172.0465,
        "meta_arg_of_pericenter": 265.9628,
        "meta_mean_anomaly": 124.6626,
        "meta_ephemeris_type": 0,
        "meta_classification_type": "U",
        "meta_norad_cat_id": 34792,
        "meta_element_set_no": 999,
        "meta_rev_at_epoch": 87632,
        "meta_bstar": 0.0016766192,
        "meta_mean_motion_dot": 7.354e-05,
        "meta_mean_motion_ddot": 0,
        "tle_line1": "1 34792U 93036AAV 25345.50817546  .00007354  00000+0  16766-2 0  9997",
        "tle_line2": "2 34792  74.0180 172.0465 0012480 265.9628 124.6626 14.55938189876321"
      },
      "geometry": {
        "type": "Point",
        "coordinates": [
          -11.53298195810337,
          9.492929087536945
        ]
      }
    },
    {
      "type": "Feature",
      "properties": {
        "norad_id": 34793,
        "name": "COSMOS 2251 DEB",
        "group": "cosmos-2251-debris",
        "lat": -2.3405394159289075,
        "lon": -108.84036474420397,
        "alt_km": 742.0101091781216,
        "timestamp": "2025-12-11T22:43:47.665839+00:00",
        "meta_object_name": "COSMOS 2251 DEB",
        "meta_object_id": "1993-036AAW",
        "meta_epoch": "2025-12-11T11:52:31.319616",
        "meta_mean_motion": 14.38641979,
        "meta_eccentricity": 0.00502482,
        "meta_inclination": 74.0029,
        "meta_ra_of_asc_node": 252.6667,
        "meta_arg_of_pericenter": 47.1088,
        "meta_mean_anomaly": 129.5736,
        "meta_ephemeris_type": 0,
        "meta_classification_type": "U",
        "meta_norad_cat_id": 34793,
        "meta_element_set_no": 999,
        "meta_rev_at_epoch": 87312,
        "meta_bstar": 0.00043002626,
        "meta_mean_motion_dot": 1.311e-05,
        "meta_mean_motion_ddot": 0,
        "tle_line1": "1 34793U 93036AAW 25345.49480694  .00001311  00000+0  43003-3 0  9998",
        "tle_line2": "2 34793  74.0029 252.6667 0050248  47.1088 129.5736 14.38641979873127"
      },
      "geometry": {
        "type": "Point",
        "coordinates": [
          -108.84036474420397,
          -2.3405394159289075
        ]
      }
    },
    {
      "type": "Feature",
      "properties": {
        "norad_id": 34796,
        "name": "COSMOS 2251 DEB",
        "group": "cosmos-2251-debris",
        "lat": 60.26105864550665,
        "lon": -112.0845354515162,
        "alt_km": 741.0177631613096,
        "timestamp": "2025-12-11T22:43:47.665849+00:00",
        "meta_object_name": "COSMOS 2251 DEB",
        "meta_object_id": "1993-036AAZ",
        "meta_epoch": "2025-12-11T15:56:49.295616",
        "meta_mean_motion": 14.48680944,
        "meta_eccentricity": 0.01002247,
        "meta_inclination": 74.0297,
        "meta_ra_of_asc_node": 218.361,
        "meta_arg_of_pericenter": 320.6455,
        "meta_mean_anomaly": 69.5316,
        "meta_ephemeris_type": 0,
        "meta_classification_type": "U",
        "meta_norad_cat_id": 34796,
        "meta_element_set_no": 999,
        "meta_rev_at_epoch": 88012,
        "meta_bstar": 0.00094017782,
        "meta_mean_motion_dot": 3.746e-05,
        "meta_mean_motion_ddot": 0,
        "tle_line1": "1 34796U 93036AAZ 25345.66445944  .00003746  00000+0  94018-3 0  9995",
        "tle_line2": "2 34796  74.0297 218.3610 0100224 320.6455  69.5316 14.48680944880122"
      },
      "geometry": {
        "type": "Point",
        "coordinates": [
          -112.0845354515162,
          60.26105864550665
        ]
      }
    },
    {
      "type": "Feature",
      "properties": {
        "norad_id": 34797,
        "name": "COSMOS 2251 DEB",
        "group": "cosmos-2251-debris",
        "lat": -22.239546417889702,
        "lon": -71.78836733545702,
        "alt_km": 704.0204711876695,
        "timestamp": "2025-12-11T22:43:47.665859+00:00",
        "meta_object_name": "COSMOS 2251 DEB",
        "meta_object_id": "1993-036ABA",
        "meta_epoch": "2025-12-08T02:15:30.483648",
        "meta_mean_motion": 14.42690241,
        "meta_eccentricity": 0.00721111,
        "meta_inclination": 73.9779,
        "meta_ra_of_asc_node": 108.638,
        "meta_arg_of_pericenter": 222.8023,
        "meta_mean_anomaly": 136.7506,
        "meta_ephemeris_type": 0,
        "meta_classification_type": "U",
        "meta_norad_cat_id": 34797,
        "meta_element_set_no": 999,
        "meta_rev_at_epoch": 87348,
        "meta_bstar": 0.0033221371,
        "meta_mean_motion_dot": 0.00011397,
        "meta_mean_motion_ddot": 0,
        "tle_line1": "1 34797U 93036ABA 25342.09410282  .00011397  00000+0  33221-2 0  9996",
        "tle_line2": "2 34797  73.9779 108.6380 0072111 222.8023 136.7506 14.42690241873482"
      },
      "geometry": {
        "type": "Point",
        "coordinates": [
          -71.78836733545702,
          -22.239546417889702
        ]
      }
    }
  ]
}